NORAD_CAT_ID,OBJECT_NAME,OBJECT_TYPE,EPOCH,MEAN_MOTION,ECCENTRICITY,INCLINATION,RA_OF_ASC_NODE,ARG_OF_PERICENTER,MEAN_ANOMALY,BSTAR,MEAN_MOTION_DOT,MEAN_MOTION_DDOT,TLE_LINE0,TLE_LINE1,TLE_LINE2,SEMIMAJOR_AXIS,PERIOD,APOGEE,PERIGEE,DECAYED
54186.0,STARLINK-5194,PAYLOAD,2023-02-09 12:00:00,15.08802716,0.0001164,53.2175,1.0014,100.7448,151.0066,0.0011362,0.00017822,0.0,0 STARLINK-5194,1 54186U 22141AF  23040.50001157  .00017822  00000-0  11362-2 0  9997,2 54186  53.2175   1.0014 0001164 100.7448 151.0066 15.08802716  1302,6917.994,95.44,540.665,539.054,0.0
54186.0,STARLINK-5194,PAYLOAD,2023-02-09 22:00:00,15.088346,0.0001218,53.2178,359.1304,109.3942,246.8022,0.0027845,0.00044299,0.0,0 STARLINK-5194,1 54186U 22141AF  23040.91667824  .00044299  00000-0  27845-2 0  9992,2 54186  53.2178 359.1304 0001218 109.3942 246.8022 15.08834600 16575,6917.897,95.438,540.604,538.919,0.0
54186.0,STARLINK-5194,PAYLOAD,2023-02-10 00:00:00,15.08867492,0.0001189,53.2177,358.7569,104.7169,344.3715,-0.0013043,-0.00021001,0.0,0 STARLINK-5194,1 54186U 22141AF  23041.00001157 -.00021001  00000-0 -13043-2 0  9997,2 54186  53.2177 358.7569 0001189 104.7169 344.3715 15.08867492  1302,6917.796,95.436,540.484,538.839,0.0
54186.0,STARLINK-5194,PAYLOAD,2023-02-10 01:11:49,15.08840622,0.0001618,53.2197,358.5315,112.0757,248.0407,-0.00010004,-1.88e-05,0.0,0 STARLINK-5194,1 54186U 22141AF  23041.04987828 -.00001880  00000-0 -10004-3 0  9997,2 54186  53.2197 358.5315 0001618 112.0757 248.0407 15.08840622 16369,6917.878,95.438,540.863,538.624,0.0
54186.0,STARLINK-5194,PAYLOAD,2023-02-10 05:57:57,15.08857297,0.0001512,53.2195,357.6393,100.4519,259.6644,6.2818e-05,7.12e-06,0.0,0 STARLINK-5194,1 54186U 22141AF  23041.24858427  .00000712  00000-0  62818-4 0  9993,2 54186  53.2195 357.6393 0001512 100.4519 259.6644 15.08857297 16629,6917.828,95.436,540.738,538.647,0.0
54186.0,STARLINK-5194,PAYLOAD,2023-02-11 02:37:58,15.08851577,0.0001351,53.2197,353.7742,97.589,262.5256,8.5242e-05,1.069e-05,0.0,0 STARLINK-5194,1 54186U 22141AF  23042.10970790  .00001069  00000-0  85242-4 0  9999,2 54186  53.2197 353.7742 0001351  97.5890 262.5256 15.08851577 16756,6917.845,95.437,540.645,538.775,0.0
54186.0,STARLINK-5194,PAYLOAD,2023-02-11 04:13:20,15.08865155,0.0001172,53.2196,353.4768,98.9774,261.135,0.00020283,2.944e-05,0.0,0 STARLINK-5194,1 54186U 22141AF  23042.17593634  .00002944  00000-0  20283-3 0  9990,2 54186  53.2196 353.4768 0001172  98.9774 261.1350 15.08865155 16530,6917.804,95.436,540.479,538.858,0.0
54186.0,STARLINK-5194,PAYLOAD,2023-02-11 20:07:14,15.08836316,0.0001562,53.2193,350.5043,86.6554,273.4616,0.0001155,1.55e-05,0.0,0 STARLINK-5194,1 54186U 22141AF  23042.83835849  .00001550  00000-0  11550-3 0  9999,2 54186  53.2193 350.5043 0001562  86.6554 273.4616 15.08836316 16633,6917.892,95.438,540.837,538.676,0.0
54186.0,STARLINK-5194,PAYLOAD,2023-02-12 05:39:32,15.08850891,0.0001566,53.2179,348.7226,69.9733,290.1428,3.3692e-05,2.48e-06,0.0,0 STARLINK-5194,1 54186U 22141AF  23043.23579121  .00000248  00000-0  33692-4 0  9997,2 54186  53.2179 348.7226 0001566  69.9733 290.1428 15.08850891 16929,6917.847,95.437,540.795,538.629,0.0
54186.0,STARLINK-5194,PAYLOAD,2023-02-12 13:36:28,15.08837205,9.54e-05,53.2194,347.2331,85.7722,274.3379,-4.2404e-05,-9.62e-06,0.0,0 STARLINK-5194,1 54186U 22141AF  23043.56699940 -.00000962  00000-0 -42404-4 0  9991,2 54186  53.2194 347.2331 0000954  85.7722 274.3379 15.08837205 16979,6917.889,95.438,540.414,539.094,0.0
54186.0,STARLINK-5194,PAYLOAD,2023-02-12 19:58:02,15.08831833,0.0001235,53.2205,346.045,74.3206,285.7922,-0.00024511,-4.186e-05,0.0,0 STARLINK-5194,1 54186U 22141AF  23043.83197155 -.00004186  00000-0 -24511-3 0  9992,2 54186  53.2205 346.0450 0001235  74.3206 285.7922 15.08831833 17012,6917.905,95.438,540.625,538.916,0.0
54186.0,STARLINK-5194,PAYLOAD,2023-02-13 02:19:33,15.08846691,0.0001077,53.2189,344.8547,83.4349,276.6765,-0.00011439,-2.108e-05,0.0,0 STARLINK-5194,1 54186U 22141AF  23044.09691756 -.00002108  00000-0 -11439-3 0  9994,2 54186  53.2189 344.8547 0001077  83.4349 276.6765 15.08846691 17055,6917.86,95.437,540.47,538.98,0.0
54186.0,STARLINK-5194,PAYLOAD,2023-02-13 05:30:19,15.08856054,0.000122,53.218,344.2594,88.3963,271.7169,-3.4779e-05,-8.42e-06,0.0,0 STARLINK-5194,1 54186U 22141AF  23044.22938886 -.00000842  00000-0 -34779-4 0  9993,2 54186  53.2180 344.2594 0001220  88.3963 271.7169 15.08856054 17078,6917.831,95.437,540.54,538.852,0.0
54186.0,STARLINK-5194,PAYLOAD,2023-02-13 13:27:16,15.08837452,0.0001695,53.22,342.773,74.5982,285.5198,-0.00013076,-2.368e-05,0.0,0 STARLINK-5194,1 54186U 22141AF  23044.56060506 -.00002368  00000-0 -13076-3 0  9996,2 54186  53.2200 342.7730 0001695  74.5982 285.5198 15.08837452 16895,6917.888,95.438,540.926,538.581,0.0
54186.0,STARLINK-5194,PAYLOAD,2023-02-14 02:10:20,15.08845406,0.0001216,53.2207,340.3929,74.8924,285.2203,4.5526e-05,4.37e-06,0.0,0 STARLINK-5194,1 54186U 22141AF  23045.09051952  .00000437  00000-0  45526-4 0  9999,2 54186  53.2207 340.3929 0001216  74.8924 285.2203 15.08845406 17202,6917.864,95.437,540.57,538.888,0.0
54186.0,STARLINK-5194,PAYLOAD,2023-02-14 05:21:06,15.08848463,0.0001305,53.2182,339.799,68.2704,291.8427,0.0001468,2.05e-05,0.0,0 STARLINK-5194,1 54186U 22141AF  23045.22299463  .00002050  00000-0  14680-3 0  9994,2 54186  53.2182 339.7990 0001305  68.2704 291.8427 15.08848463 16998,6917.855,95.437,540.622,538.817,0.0
54186.0,STARLINK-5194,PAYLOAD,2023-02-15 02:01:07,15.08849025,9.92e-05,53.2185,335.9331,85.521,274.5895,0.00019268,2.781e-05,0.0,0 STARLINK-5194,1 54186U 22141AF  23046.08411694  .00002781  00000-0  19268-3 0  9999,2 54186  53.2185 335.9331 0000992  85.5210 274.5895 15.08849025 17121,6917.853,95.437,540.404,539.032,0.0
54186.0,STARLINK-5194,PAYLOAD,2023-02-16 00:16:31,15.08846069,0.0001241,53.2189,331.7715,73.1547,286.9582,0.00023153,3.399e-05,0.0,0 STARLINK-5194,1 54186U 22141AF  23047.01147730  .00003399  00000-0  23153-3 0  9994,2 54186  53.2189 331.7715 0001241  73.1547 286.9582 15.08846069 17494,6917.862,95.437,540.585,538.868,0.0
54186.0,STARLINK-5194,PAYLOAD,2023-02-16 11:24:13,15.08843436,0.0001494,53.2187,329.6883,82.7152,277.401,8.1467e-05,1.009e-05,0.0,0 STARLINK-5194,1 54186U 22141AF  23047.47516006  .00001009  00000-0  81467-4 0  9999,2 54186  53.2187 329.6883 0001494  82.7152 277.4010 15.08843436 17331,6917.87,95.437,540.768,538.701,0.0
54186.0,STARLINK-5194,PAYLOAD,2023-02-16 22:31:57,15.08822556,9.34e-05,53.2179,327.6086,94.4141,265.6958,-0.00018314,-3.2e-05,0.0,0 STARLINK-5194,1 54186U 22141AF  23047.93886327 -.00003200  00000-0 -18314-3 0  9993,2 54186  53.2179 327.6086 0000934  94.4141 265.6958 15.08822556 17634,6917.934,95.439,540.445,539.153,0.0
54186.0,STARLINK-5194,PAYLOAD,2023-02-17 03:18:05,15.08841341,9.09e-05,53.2181,326.7167,95.4369,264.6727,-1.6827e-05,-5.56e-06,0.0,0 STARLINK-5194,1 54186U 22141AF  23048.13756852 -.00000556  00000-0 -16827-4 0  9994,2 54186  53.2181 326.7167 0000909  95.4369 264.6727 15.08841341 17661,6917.876,95.437,540.37,539.112,0.0
54186.0,STARLINK-5194,PAYLOAD,2023-02-17 11:15:02,15.08825846,8.55e-05,53.2177,325.2298,102.1396,257.9692,-0.00012487,-2.274e-05,0.0,0 STARLINK-5194,1 54186U 22141AF  23048.46878260 -.00002274  00000-0 -12487-3 0  9994,2 54186  53.2177 325.2298 0000855 102.1396 257.9692 15.08825846 17715,6917.924,95.438,540.38,539.197,0.0
54186.0,STARLINK-5194,PAYLOAD,2023-02-17 20:47:22,15.0882135,0.000122,53.2175,323.4444,99.5782,260.5348,-0.00014452,-2.586e-05,0.0,0 STARLINK-5194,1 54186U 22141AF  23048.86622975 -.00002586  00000-0 -14452-3 0  9998,2 54186  53.2175 323.4444 0001220  99.5782 260.5348 15.08821350 17546,6917.937,95.439,540.646,538.958,0.0
54186.0,STARLINK-5194,PAYLOAD,2023-02-18 11:05:49,15.08838309,0.0001128,53.217,320.7708,110.9044,249.2069,0.00010939,1.453e-05,0.0,0 STARLINK-5194,1 54186U 22141AF  23049.46237593  .00001453  00000-0  10939-3 0  9999,2 54186  53.2170 320.7708 0001128 110.9044 249.2069 15.08838309 17861,6917.886,95.438,540.531,538.97,0.0
54186.0,STARLINK-5194,PAYLOAD,2023-02-18 22:13:30,15.08842224,7.12e-05,53.2187,318.6874,123.3239,236.7821,0.0003903,5.93e-05,0.0,0 STARLINK-5194,1 54186U 22141AF  23049.92604679  .00005930  00000-0  39030-3 0  9990,2 54186  53.2187 318.6874 0000712 123.3239 236.7821 15.08842224 17937,6917.874,95.437,540.231,539.246,0.0
54186.0,STARLINK-5194,PAYLOAD,2023-02-19 10:56:35,15.08850332,0.000136,53.2196,316.307,67.624,292.4896,0.00027061,4.023e-05,0.0,0 STARLINK-5194,1 54186U 22141AF  23050.45596526  .00004023  00000-0  27061-3 0  9994,2 54186  53.2196 316.3070 0001360  67.6240 292.4896 15.08850332 17785,6917.849,95.437,540.655,538.773,0.0
54186.0,STARLINK-5194,PAYLOAD,2023-02-19 22:04:19,15.08824197,9.77e-05,53.2172,314.227,91.9753,268.1351,0.00012135,1.643e-05,0.0,0 STARLINK-5194,1 54186U 22141AF  23050.91966617  .00001643  00000-0  12135-3 0  9998,2 54186  53.2172 314.2270 0000977  91.9753 268.1351 15.08824197 18080,6917.929,95.439,540.47,539.118,0.0
54186.0,STARLINK-5194,PAYLOAD,2023-02-20 10:47:25,15.08822855,8.63e-05,53.2174,311.8467,109.6429,250.4657,-0.00011477,-2.113e-05,0.0,0 STARLINK-5194,1 54186U 22141AF  23051.44959746 -.00002113  00000-0 -11477-3 0  9995,2 54186  53.2174 311.8467 0000863 109.6429 250.4657 15.08822855 18165,6917.933,95.439,540.395,539.201,0.0
54186.0,STARLINK-5194,PAYLOAD,2023-02-20 21:55:06,15.0883873,7.01e-05,53.2179,309.7666,94.7543,265.3529,-0.0001118,-2.066e-05,0.0,0 STARLINK-5194,1 54186U 22141AF  23051.91326785 -.00002066  00000-0 -11180-3 0  9996,2 54186  53.2179 309.7666 0000701  94.7543 265.3529 15.08838730 18239,6917.884,95.438,540.234,539.264,0.0
54186.0,STARLINK-5194,PAYLOAD,2023-02-20 23:30:29,15.08851664,0.000101,53.2169,309.4681,108.5079,251.6023,-0.00020437,-3.54e-05,0.0,0 STARLINK-5194,1 54186U 22141AF  23051.97950267 -.00003540  00000-0 -20437-3 0  9993,2 54186  53.2169 309.4681 0001010 108.5079 251.6023 15.08851664 18243,6917.845,95.437,540.408,539.011,0.0
